STARLINK-3827           
1 52370U 22045AR  26068.63928744  .00000567  00000+0  53710-4 0  9992
2 52370  53.2187 189.3589 0001291  91.7690 268.3450 15.08837790215917
YAM-8                   
1 63254U 25052AW  26068.73092778  .00007810  00000+0  47267-3 0  9993
2 63254  97.7023 329.5345 0002369 152.6796 207.4558 15.10898938 54245
